[
    {
        "OBJECT_NAME": "SL-3 R/B",
        "OBJECT_ID": "1983-010B",
        "EPOCH": "2026-04-25T15:38:22.903872",
        "MEAN_MOTION": 15.4773067,
        "ECCENTRICITY": 0.0015168,
        "INCLINATION": 81.1012,
        "RA_OF_ASC_NODE": 304.5985,
        "ARG_OF_PERICENTER": 241.6612,
        "MEAN_ANOMALY": 118.3104,
        "EPHEMERIS_TYPE": 0,
        "CLASSIFICATION_TYPE": "U",
        "NORAD_CAT_ID": 13819,
        "ELEMENT_SET_NO": 999,
        "REV_AT_EPOCH": 36520,
        "BSTAR": 0.00026711,
        "MEAN_MOTION_DOT": 0.00013926,
        "MEAN_MOTION_DDOT": 0
    },
    {
        "OBJECT_NAME": "SL-3 R/B",
        "OBJECT_ID": "1983-075B",
        "EPOCH": "2026-04-25T19:50:47.844960",
        "MEAN_MOTION": 15.39463586,
        "ECCENTRICITY": 0.0022856,
        "INCLINATION": 97.613,
        "RA_OF_ASC_NODE": 122.23,
        "ARG_OF_PERICENTER": 64.0476,
        "MEAN_ANOMALY": 296.312,
        "EPHEMERIS_TYPE": 0,
        "CLASSIFICATION_TYPE": "U",
        "NORAD_CAT_ID": 14208,
        "ELEMENT_SET_NO": 999,
        "REV_AT_EPOCH": 33740,
        "BSTAR": 0.00030829,
        "MEAN_MOTION_DOT": 0.0001211,
        "MEAN_MOTION_DDOT": 0
    },
    {
        "OBJECT_NAME": "COSMOS 1536",
        "OBJECT_ID": "1984-013A",
        "EPOCH": "2026-04-25T20:36:00.676224",
        "MEAN_MOTION": 15.24449374,
        "ECCENTRICITY": 0.0016134,
        "INCLINATION": 82.5446,
        "RA_OF_ASC_NODE": 60.93,
        "ARG_OF_PERICENTER": 113.1726,
        "MEAN_ANOMALY": 247.1213,
        "EPHEMERIS_TYPE": 0,
        "CLASSIFICATION_TYPE": "U",
        "NORAD_CAT_ID": 14699,
        "ELEMENT_SET_NO": 999,
        "REV_AT_EPOCH": 27980,
        "BSTAR": 0.00034339,
        "MEAN_MOTION_DOT": 8.491e-05,
        "MEAN_MOTION_DDOT": 0
    },
    {
        "OBJECT_NAME": "SL-14 R/B",
        "OBJECT_ID": "1984-027B",
        "EPOCH": "2026-04-25T16:39:17.307648",
        "MEAN_MOTION": 14.860222,
        "ECCENTRICITY": 0.0018179,
        "INCLINATION": 82.5444,
        "RA_OF_ASC_NODE": 200.9369,
        "ARG_OF_PERICENTER": 172.963,
        "MEAN_ANOMALY": 187.1845,
        "EPHEMERIS_TYPE": 0,
        "CLASSIFICATION_TYPE": "U",
        "NORAD_CAT_ID": 14820,
        "ELEMENT_SET_NO": 999,
        "REV_AT_EPOCH": 25461,
        "BSTAR": 3.8234e-05,
        "MEAN_MOTION_DOT": 3.6e-06,
        "MEAN_MOTION_DDOT": 0
    },
    {
        "OBJECT_NAME": "SL-8 R/B",
        "OBJECT_ID": "1985-006B",
        "EPOCH": "2026-04-25T15:11:44.312064",
        "MEAN_MOTION": 14.37811544,
        "ECCENTRICITY": 0.0017196,
        "INCLINATION": 74.0454,
        "RA_OF_ASC_NODE": 174.7711,
        "ARG_OF_PERICENTER": 76.7104,
        "MEAN_ANOMALY": 33.6084,
        "EPHEMERIS_TYPE": 0,
        "CLASSIFICATION_TYPE": "U",
        "NORAD_CAT_ID": 15483,
        "ELEMENT_SET_NO": 999,
        "REV_AT_EPOCH": 16077,
        "BSTAR": 6.4473e-05,
        "MEAN_MOTION_DOT": 1.68e-06,
        "MEAN_MOTION_DDOT": 0
    },
    {
        "OBJECT_NAME": "SL-12 R/B(2)",
        "OBJECT_ID": "1985-042D",
        "EPOCH": "2026-04-25T19:52:15.954816",
        "MEAN_MOTION": 14.21995065,
        "ECCENTRICITY": 0.0033452,
        "INCLINATION": 71.1096,
        "RA_OF_ASC_NODE": 348.1406,
        "ARG_OF_PERICENTER": 50.0637,
        "MEAN_ANOMALY": 23.1334,
        "EPHEMERIS_TYPE": 0,
        "CLASSIFICATION_TYPE": "U",
        "NORAD_CAT_ID": 15772,
        "ELEMENT_SET_NO": 999,
        "REV_AT_EPOCH": 12109,
        "BSTAR": 7.4482e-05,
        "MEAN_MOTION_DOT": 1.18e-06,
        "MEAN_MOTION_DDOT": 0
    },
    {
        "OBJECT_NAME": "SL-14 R/B",
        "OBJECT_ID": "1985-069B",
        "EPOCH": "2026-04-25T15:56:37.266144",
        "MEAN_MOTION": 14.86476918,
        "ECCENTRICITY": 0.0019789,
        "INCLINATION": 82.5274,
        "RA_OF_ASC_NODE": 340.7717,
        "ARG_OF_PERICENTER": 40.4614,
        "MEAN_ANOMALY": 319.807,
        "EPHEMERIS_TYPE": 0,
        "CLASSIFICATION_TYPE": "U",
        "NORAD_CAT_ID": 15945,
        "ELEMENT_SET_NO": 999,
        "REV_AT_EPOCH": 17981,
        "BSTAR": 3.5426e-05,
        "MEAN_MOTION_DOT": 3.39e-06,
        "MEAN_MOTION_DDOT": 0
    },
    {
        "OBJECT_NAME": "SL-16 R/B",
        "OBJECT_ID": "1985-097B",
        "EPOCH": "2026-04-25T20:56:33.821088",
        "MEAN_MOTION": 14.16606234,
        "ECCENTRICITY": 0.000809,
        "INCLINATION": 71.0044,
        "RA_OF_ASC_NODE": 41.2161,
        "ARG_OF_PERICENTER": 201.5347,
        "MEAN_ANOMALY": 215.9981,
        "EPHEMERIS_TYPE": 0,
        "CLASSIFICATION_TYPE": "U",
        "NORAD_CAT_ID": 16182,
        "ELEMENT_SET_NO": 999,
        "REV_AT_EPOCH": 9391,
        "BSTAR": -8.7104e-05,
        "MEAN_MOTION_DOT": -2.22e-06,
        "MEAN_MOTION_DDOT": 0
    },
    {
        "OBJECT_NAME": "SL-14 R/B",
        "OBJECT_ID": "1986-006B",
        "EPOCH": "2026-04-25T18:19:46.055136",
        "MEAN_MOTION": 14.86890952,
        "ECCENTRICITY": 0.0077839,
        "INCLINATION": 82.5293,
        "RA_OF_ASC_NODE": 215.4355,
        "ARG_OF_PERICENTER": 116.2272,
        "MEAN_ANOMALY": 244.6973,
        "EPHEMERIS_TYPE": 0,
        "CLASSIFICATION_TYPE": "U",
        "NORAD_CAT_ID": 16496,
        "ELEMENT_SET_NO": 999,
        "REV_AT_EPOCH": 15620,
        "BSTAR": 6.395e-05,
        "MEAN_MOTION_DOT": 6.32e-06,
        "MEAN_MOTION_DDOT": 0
    },
    {
        "OBJECT_NAME": "COSMOS 1743",
        "OBJECT_ID": "1986-034A",
        "EPOCH": "2026-04-25T18:29:10.603104",
        "MEAN_MOTION": 15.62615159,
        "ECCENTRICITY": 0.0007539,
        "INCLINATION": 82.5325,
        "RA_OF_ASC_NODE": 24.2675,
        "ARG_OF_PERICENTER": 104.1152,
        "MEAN_ANOMALY": 256.0945,
        "EPHEMERIS_TYPE": 0,
        "CLASSIFICATION_TYPE": "U",
        "NORAD_CAT_ID": 16719,
        "ELEMENT_SET_NO": 999,
        "REV_AT_EPOCH": 18759,
        "BSTAR": 0.00049097,
        "MEAN_MOTION_DOT": 0.00044079,
        "MEAN_MOTION_DDOT": 0
    },
    {
        "OBJECT_NAME": "SL-14 R/B",
        "OBJECT_ID": "1986-046B",
        "EPOCH": "2026-04-25T19:41:23.201088",
        "MEAN_MOTION": 14.85634462,
        "ECCENTRICITY": 0.0024644,
        "INCLINATION": 82.4845,
        "RA_OF_ASC_NODE": 35.6502,
        "ARG_OF_PERICENTER": 73.3343,
        "MEAN_ANOMALY": 287.0575,
        "EPHEMERIS_TYPE": 0,
        "CLASSIFICATION_TYPE": "U",
        "NORAD_CAT_ID": 16792,
        "ELEMENT_SET_NO": 999,
        "REV_AT_EPOCH": 13340,
        "BSTAR": 4.9598e-05,
        "MEAN_MOTION_DOT": 4.56e-06,
        "MEAN_MOTION_DDOT": 0
    },
    {
        "OBJECT_NAME": "SL-14 R/B",
        "OBJECT_ID": "1986-055B",
        "EPOCH": "2026-04-25T21:01:14.164896",
        "MEAN_MOTION": 14.85682928,
        "ECCENTRICITY": 0.001904,
        "INCLINATION": 82.5186,
        "RA_OF_ASC_NODE": 82.3064,
        "ARG_OF_PERICENTER": 171.2824,
        "MEAN_ANOMALY": 218.8713,
        "EPHEMERIS_TYPE": 0,
        "CLASSIFICATION_TYPE": "U",
        "NORAD_CAT_ID": 16882,
        "ELEMENT_SET_NO": 999,
        "REV_AT_EPOCH": 12637,
        "BSTAR": 5.1677e-05,
        "MEAN_MOTION_DOT": 4.74e-06,
        "MEAN_MOTION_DDOT": 0
    },
    {
        "OBJECT_NAME": "AJISAI (EGS)",
        "OBJECT_ID": "1986-061A",
        "EPOCH": "2026-04-25T20:53:10.457088",
        "MEAN_MOTION": 12.44515983,
        "ECCENTRICITY": 0.0011425,
        "INCLINATION": 50.0099,
        "RA_OF_ASC_NODE": 308.2702,
        "ARG_OF_PERICENTER": 47.9987,
        "MEAN_ANOMALY": 86.7629,
        "EPHEMERIS_TYPE": 0,
        "CLASSIFICATION_TYPE": "U",
        "NORAD_CAT_ID": 16908,
        "ELEMENT_SET_NO": 999,
        "REV_AT_EPOCH": 47387,
        "BSTAR": 0.00013314,
        "MEAN_MOTION_DOT": -7.9e-07,
        "MEAN_MOTION_DDOT": 0
    }
]